ONEWEB-0363             
1 49289U 21090L   25335.96970933  .00000043  00000+0  74425-4 0  9990
2 49289  87.9196 313.7680 0001719  96.8696 263.2633 13.20770486204272
ONEWEB-0364             
1 49290U 21090M   25336.23485064 -.00000019  00000+0 -77881-4 0  9993
2 49290  87.9185 313.7394 0001784  89.3136 270.8202 13.20769415205448
ONEWEB-0365             
1 49291U 21090N   25336.06304106  .00000055  00000+0  10497-3 0  9999
2 49291  87.9212 344.1735 0001903  89.0827 271.0524 13.19723720200424
ONEWEB-0366             
1 49292U 21090P   25336.21471563  .00000165  00000+0  41026-3 0  9993
2 49292  87.8979 328.9627 0001704  89.3070 270.8255 13.14502277201680
ONEWEB-0367             
1 49293U 21090Q   25335.96812614  .00000041  00000+0  68019-4 0  9996
2 49293  87.9196 313.7670 0001916  79.6986 280.4364 13.20769557203791
ONEWEB-0368             
1 49294U 21090R   25335.94130133 -.00000010  00000+0 -55556-4 0  9994
2 49294  87.9186 313.8033 0002439  99.6170 260.5239 13.20769937204943
ONEWEB-0369             
1 49295U 21090S   25336.05829207  .00000091  00000+0  19523-3 0  9995
2 49295  87.9202 344.2032 0001865  90.1052 270.0295 13.19723206200410
ONEWEB-0370             
1 49296U 21090T   25336.20486145  .00000060  00000+0  11603-3 0  9990
2 49296  87.9187 313.7254 0001689  76.1538 283.9783 13.20769567203866
ONEWEB-0371             
1 49297U 21090U   25336.06619646  .00000034  00000+0  53109-4 0  9998
2 49297  87.9201 344.1885 0001846  87.6218 272.5126 13.19723449200453
ONEWEB-0372             
1 49298U 21090V   25335.96639998  .00000098  00000+0  20812-3 0  9993
2 49298  87.9184 313.7733 0001924  85.0128 275.1225 13.20774462203801
ONEWEB-0373             
1 49299U 21090W   25335.99337729 -.00000014  00000+0 -66697-4 0  9996
2 49299  87.9181 313.7810 0001710  86.1804 273.9525 13.20772857204997
ONEWEB-0374             
1 49300U 21090X   25336.27813786  .00000291  00000+0  75025-3 0  9992
2 49300  87.8985 328.9275 0001880 105.7186 254.4151 13.14504561201694
ONEWEB-0375             
1 49301U 21090Y   25336.20795528 -.00006480  00000+0 -15966-1 0  9993
2 49301  87.9101 313.7205 0001863  86.4538 273.6809 13.20833357204521
ONEWEB-0376             
1 49302U 21090Z   25336.06462123  .00000092  00000+0  19683-3 0  9993
2 49302  87.9205 344.1759 0002008  88.1506 271.9857 13.19726795200452
ONEWEB-0377             
1 49303U 21090AA  25336.19395457  .00000049  00000+0  88745-4 0  9991
2 49303  87.9193 313.7216 0001611  83.4486 276.6831 13.20772904204513
ONEWEB-0378             
1 49304U 21090AB  25336.21604762  .00000011  00000+0 -46189-5 0  9994
2 49304  87.9189 313.7319 0001767  89.2874 270.8462 13.20769636203782
ONEWEB-0379             
1 49305U 21090AC  25336.04501365 -.00002290  00000+0 -62113-2 0  9995
2 49305  87.8988 328.9828 0001895  87.2807 272.8540 13.14512890201663
