[{"OBJECT_NAME":"ONEWEB-0363","OBJECT_ID":"2021-090L","EPOCH":"2025-12-01T23:16:22.886112","MEAN_MOTION":13.20770486,"ECCENTRICITY":0.00017193,"INCLINATION":87.9196,"RA_OF_ASC_NODE":313.768,"ARG_OF_PERICENTER":96.8696,"MEAN_ANOMALY":263.2633,"EPHEMERIS_TYPE":0,"CLASSIFICATION_TYPE":"U","NORAD_CAT_ID":49289,"ELEMENT_SET_NO":999,"REV_AT_EPOCH":20427,"BSTAR":7.4424614e-5,"MEAN_MOTION_DOT":4.3e-7,"MEAN_MOTION_DDOT":0},{"OBJECT_NAME":"ONEWEB-0364","OBJECT_ID":"2021-090M","EPOCH":"2025-12-02T05:38:11.095296","MEAN_MOTION":13.20769415,"ECCENTRICITY":0.00017846,"INCLINATION":87.9185,"RA_OF_ASC_NODE":313.7394,"ARG_OF_PERICENTER":89.3136,"MEAN_ANOMALY":270.8202,"EPHEMERIS_TYPE":0,"CLASSIFICATION_TYPE":"U","NORAD_CAT_ID":49290,"ELEMENT_SET_NO":999,"REV_AT_EPOCH":20544,"BSTAR":-7.7881254e-5,"MEAN_MOTION_DOT":-1.9e-7,"MEAN_MOTION_DDOT":0},{"OBJECT_NAME":"ONEWEB-0365","OBJECT_ID":"2021-090N","EPOCH":"2025-12-02T01:30:46.747584","MEAN_MOTION":13.1972372,"ECCENTRICITY":0.00019031,"INCLINATION":87.9212,"RA_OF_ASC_NODE":344.1735,"ARG_OF_PERICENTER":89.0827,"MEAN_ANOMALY":271.0524,"EPHEMERIS_TYPE":0,"CLASSIFICATION_TYPE":"U","NORAD_CAT_ID":49291,"ELEMENT_SET_NO":999,"REV_AT_EPOCH":20042,"BSTAR":0.00010497302,"MEAN_MOTION_DOT":5.5e-7,"MEAN_MOTION_DDOT":0},{"OBJECT_NAME":"ONEWEB-0366","OBJECT_ID":"2021-090P","EPOCH":"2025-12-02T05:09:11.430432","MEAN_MOTION":13.14502277,"ECCENTRICITY":0.00017047,"INCLINATION":87.8979,"RA_OF_ASC_NODE":328.9627,"ARG_OF_PERICENTER":89.307,"MEAN_ANOMALY":270.8255,"EPHEMERIS_TYPE":0,"CLASSIFICATION_TYPE":"U","NORAD_CAT_ID":49292,"ELEMENT_SET_NO":999,"REV_AT_EPOCH":20168,"BSTAR":0.00041025668,"MEAN_MOTION_DOT":1.65e-6,"MEAN_MOTION_DDOT":0},{"OBJECT_NAME":"ONEWEB-0367","OBJECT_ID":"2021-090Q","EPOCH":"2025-12-01T23:14:06.098496","MEAN_MOTION":13.20769557,"ECCENTRICITY":0.00019165,"INCLINATION":87.9196,"RA_OF_ASC_NODE":313.767,"ARG_OF_PERICENTER":79.6986,"MEAN_ANOMALY":280.4364,"EPHEMERIS_TYPE":0,"CLASSIFICATION_TYPE":"U","NORAD_CAT_ID":49293,"ELEMENT_SET_NO":999,"REV_AT_EPOCH":20379,"BSTAR":6.8019249e-5,"MEAN_MOTION_DOT":4.1e-7,"MEAN_MOTION_DDOT":0},{"OBJECT_NAME":"ONEWEB-0368","OBJECT_ID":"2021-090R","EPOCH":"2025-12-01T22:35:28.434912","MEAN_MOTION":13.20769937,"ECCENTRICITY":0.00024394,"INCLINATION":87.9186,"RA_OF_ASC_NODE":313.8033,"ARG_OF_PERICENTER":99.617,"MEAN_ANOMALY":260.5239,"EPHEMERIS_TYPE":0,"CLASSIFICATION_TYPE":"U","NORAD_CAT_ID":49294,"ELEMENT_SET_NO":999,"REV_AT_EPOCH":20494,"BSTAR":-5.555626e-5,"MEAN_MOTION_DOT":-1.0e-7,"MEAN_MOTION_DDOT":0},{"OBJECT_NAME":"ONEWEB-0369","OBJECT_ID":"2021-090S","EPOCH":"2025-12-02T01:23:56.434848","MEAN_MOTION":13.19723206,"ECCENTRICITY":0.00018655,"INCLINATION":87.9202,"RA_OF_ASC_NODE":344.2032,"ARG_OF_PERICENTER":90.1052,"MEAN_ANOMALY":270.0295,"EPHEMERIS_TYPE":0,"CLASSIFICATION_TYPE":"U","NORAD_CAT_ID":49295,"ELEMENT_SET_NO":999,"REV_AT_EPOCH":20041,"BSTAR":0.00019523127,"MEAN_MOTION_DOT":9.1e-7,"MEAN_MOTION_DDOT":0},{"OBJECT_NAME":"ONEWEB-0370","OBJECT_ID":"2021-090T","EPOCH":"2025-12-02T04:55:00.029280","MEAN_MOTION":13.20769567,"ECCENTRICITY":0.0001689,"INCLINATION":87.9187,"RA_OF_ASC_NODE":313.7254,"ARG_OF_PERICENTER":76.1538,"MEAN_ANOMALY":283.9783,"EPHEMERIS_TYPE":0,"CLASSIFICATION_TYPE":"U","NORAD_CAT_ID":49296,"ELEMENT_SET_NO":999,"REV_AT_EPOCH":20386,"BSTAR":0.00011603246,"MEAN_MOTION_DOT":6.0e-7,"MEAN_MOTION_DDOT":0},{"OBJECT_NAME":"ONEWEB-0371","OBJECT_ID":"2021-090U","EPOCH":"2025-12-02T01:35:19.374144","MEAN_MOTION":13.19723449,"ECCENTRICITY":0.00018465,"INCLINATION":87.9201,"RA_OF_ASC_NODE":344.1885,"ARG_OF_PERICENTER":87.6218,"MEAN_ANOMALY":272.5126,"EPHEMERIS_TYPE":0,"CLASSIFICATION_TYPE":"U","NORAD_CAT_ID":49297,"ELEMENT_SET_NO":999,"REV_AT_EPOCH":20045,"BSTAR":5.3109392e-5,"MEAN_MOTION_DOT":3.4e-7,"MEAN_MOTION_DDOT":0},{"OBJECT_NAME":"ONEWEB-0372","OBJECT_ID":"2021-090V","EPOCH":"2025-12-01T23:11:36.958272","MEAN_MOTION":13.20774462,"ECCENTRICITY":0.00019243,"INCLINATION":87.9184,"RA_OF_ASC_NODE":313.7733,"ARG_OF_PERICENTER":85.0128,"MEAN_ANOMALY":275.1225,"EPHEMERIS_TYPE":0,"CLASSIFICATION_TYPE":"U","NORAD_CAT_ID":49298,"ELEMENT_SET_NO":999,"REV_AT_EPOCH":20380,"BSTAR":0.00020811986,"MEAN_MOTION_DOT":9.8e-7,"MEAN_MOTION_DDOT":0},{"OBJECT_NAME":"ONEWEB-0373","OBJECT_ID":"2021-090W","EPOCH":"2025-12-01T23:50:27.797856","MEAN_MOTION":13.20772857,"ECCENTRICITY":0.00017101,"INCLINATION":87.9181,"RA_OF_ASC_NODE":313.781,"ARG_OF_PERICENTER":86.1804,"MEAN_ANOMALY":273.9525,"EPHEMERIS_TYPE":0,"CLASSIFICATION_TYPE":"U","NORAD_CAT_ID":49299,"ELEMENT_SET_NO":999,"REV_AT_EPOCH":20499,"BSTAR":-6.6697427e-5,"MEAN_MOTION_DOT":-1.4e-7,"MEAN_MOTION_DDOT":0},{"OBJECT_NAME":"ONEWEB-0374","OBJECT_ID":"2021-090X","EPOCH":"2025-12-02T06:40:31.111104","MEAN_MOTION":13.14504561,"ECCENTRICITY":0.000188,"INCLINATION":87.8985,"RA_OF_ASC_NODE":328.9275,"ARG_OF_PERICENTER":105.7186,"MEAN_ANOMALY":254.4151,"EPHEMERIS_TYPE":0,"CLASSIFICATION_TYPE":"U","NORAD_CAT_ID":49300,"ELEMENT_SET_NO":999,"REV_AT_EPOCH":20169,"BSTAR":0.00075024996,"MEAN_MOTION_DOT":2.91e-6,"MEAN_MOTION_DDOT":0},{"OBJECT_NAME":"ONEWEB-0375","OBJECT_ID":"2021-090Y","EPOCH":"2025-12-02T04:59:27.336192","MEAN_MOTION":13.20833357,"ECCENTRICITY":0.00018635,"INCLINATION":87.9101,"RA_OF_ASC_NODE":313.7205,"ARG_OF_PERICENTER":86.4538,"MEAN_ANOMALY":273.6809,"EPHEMERIS_TYPE":0,"CLASSIFICATION_TYPE":"U","NORAD_CAT_ID":49301,"ELEMENT_SET_NO":999,"REV_AT_EPOCH":20452,"BSTAR":-0.015965579,"MEAN_MOTION_DOT":-6.48e-5,"MEAN_MOTION_DDOT":0},{"OBJECT_NAME":"ONEWEB-0376","OBJECT_ID":"2021-090Z","EPOCH":"2025-12-02T01:33:03.274272","MEAN_MOTION":13.19726795,"ECCENTRICITY":0.00020086,"INCLINATION":87.9205,"RA_OF_ASC_NODE":344.1759,"ARG_OF_PERICENTER":88.1506,"MEAN_ANOMALY":271.9857,"EPHEMERIS_TYPE":0,"CLASSIFICATION_TYPE":"U","NORAD_CAT_ID":49302,"ELEMENT_SET_NO":999,"REV_AT_EPOCH":20045,"BSTAR":0.00019682544,"MEAN_MOTION_DOT":9.2e-7,"MEAN_MOTION_DDOT":0},{"OBJECT_NAME":"ONEWEB-0377","OBJECT_ID":"2021-090AA","EPOCH":"2025-12-02T04:39:17.674848","MEAN_MOTION":13.20772904,"ECCENTRICITY":0.00016119,"INCLINATION":87.9193,"RA_OF_ASC_NODE":313.7216,"ARG_OF_PERICENTER":83.4486,"MEAN_ANOMALY":276.6831,"EPHEMERIS_TYPE":0,"CLASSIFICATION_TYPE":"U","NORAD_CAT_ID":49303,"ELEMENT_SET_NO":999,"REV_AT_EPOCH":20451,"BSTAR":8.8745259e-5,"MEAN_MOTION_DOT":4.9e-7,"MEAN_MOTION_DDOT":0},{"OBJECT_NAME":"ONEWEB-0378","OBJECT_ID":"2021-090AB","EPOCH":"2025-12-02T05:11:06.514368","MEAN_MOTION":13.20769636,"ECCENTRICITY":0.00017679,"INCLINATION":87.9189,"RA_OF_ASC_NODE":313.7319,"ARG_OF_PERICENTER":89.2874,"MEAN_ANOMALY":270.8462,"EPHEMERIS_TYPE":0,"CLASSIFICATION_TYPE":"U","NORAD_CAT_ID":49304,"ELEMENT_SET_NO":999,"REV_AT_EPOCH":20378,"BSTAR":-4.618922e-6,"MEAN_MOTION_DOT":1.1e-7,"MEAN_MOTION_DDOT":0},{"OBJECT_NAME":"ONEWEB-0379","OBJECT_ID":"2021-090AC","EPOCH":"2025-12-02T01:04:49.179360","MEAN_MOTION":13.1451289,"ECCENTRICITY":0.00018958,"INCLINATION":87.8988,"RA_OF_ASC_NODE":328.9828,"ARG_OF_PERICENTER":87.2807,"MEAN_ANOMALY":272.854,"EPHEMERIS_TYPE":0,"CLASSIFICATION_TYPE":"U","NORAD_CAT_ID":49305,"ELEMENT_SET_NO":999,"REV_AT_EPOCH":20166,"BSTAR":-0.0062113329,"MEAN_MOTION_DOT":-2.29e-5,"MEAN_MOTION_DDOT":0}]
